0 SL-16 DEB
1 35420U 01056M   13283.08262752  .00000245  00000-0  30565-3 0  6388
2 35420 099.1758 144.4655 0023716 223.5170 290.4447 13.73876856590034
0 SL-16 DEB
1 35420U 01056M   13287.57259481  .00000328  00000-0  39401-3 0  6404
2 35420 099.1751 148.7759 0023861 211.4545 177.9048 13.73879770590643
0 SL-16 DEB
1 35420U 01056M   13290.55911418  .00000320  00000-0  38557-3 0  6415
2 35420 099.1745 151.6428 0023979 203.3968 189.3464 13.73882220591050
0 SL-16 DEB
1 35420U 01056M   13292.59703789  .00000317  00000-0  38284-3 0  6425
2 35420 099.1742 153.5987 0024051 197.8546 189.0535 13.73883447591338
0 SL-16 DEB
1 35420U 01056M   13295.09884036  .00000341  00000-0  40792-3 0  6433
2 35420 099.1744 155.9999 0024141 191.1542 323.0499 13.73885559591685
